CCSDS_OMM_VERS = 2.0
CREATION_DATE  = 
ORIGINATOR     = 

OBJECT_NAME    = H-2A R/B
OBJECT_ID      = 2006-002B
CENTER_NAME    = EARTH
REF_FRAME      = TEME
TIME_SYSTEM    = UTC
MEAN_ELEMENT_THEORY = SGP/SGP4

EPOCH          = 2026-04-02T03:53:41.415360
MEAN_MOTION    = 15.16964387
ECCENTRICITY   = .0052453
INCLINATION    = 98.2454
RA_OF_ASC_NODE = 241.2201
ARG_OF_PERICENTER = 160.9912
MEAN_ANOMALY   = 199.3292

EPHEMERIS_TYPE = 0
CLASSIFICATION_TYPE = U
NORAD_CAT_ID   = 28932
ELEMENT_SET_NO = 999
REV_AT_EPOCH   = 9799
BSTAR          = .79314E-3
MEAN_MOTION_DOT = .16163E-3
MEAN_MOTION_DDOT = 0

CCSDS_OMM_VERS = 2.0
CREATION_DATE  = 
ORIGINATOR     = 

OBJECT_NAME    = RESURS-DK 1
OBJECT_ID      = 2006-021A
CENTER_NAME    = EARTH
REF_FRAME      = TEME
TIME_SYSTEM    = UTC
MEAN_ELEMENT_THEORY = SGP/SGP4

EPOCH          = 2026-04-02T04:57:33.227712
MEAN_MOTION    = 15.12890515
ECCENTRICITY   = .0001737
INCLINATION    = 69.9335
RA_OF_ASC_NODE = 176.1893
ARG_OF_PERICENTER = 40.3773
MEAN_ANOMALY   = 319.7522

EPHEMERIS_TYPE = 0
CLASSIFICATION_TYPE = U
NORAD_CAT_ID   = 29228
ELEMENT_SET_NO = 999
REV_AT_EPOCH   = 9108
BSTAR          = .18382E-3
MEAN_MOTION_DOT = .3136E-4
MEAN_MOTION_DDOT = 0

CCSDS_OMM_VERS = 2.0
CREATION_DATE  = 
ORIGINATOR     = 

OBJECT_NAME    = CZ-4B R/B
OBJECT_ID      = 2006-046C
CENTER_NAME    = EARTH
REF_FRAME      = TEME
TIME_SYSTEM    = UTC
MEAN_ELEMENT_THEORY = SGP/SGP4

EPOCH          = 2026-04-02T02:11:21.444288
MEAN_MOTION    = 15.17145047
ECCENTRICITY   = .0033109
INCLINATION    = 97.5541
RA_OF_ASC_NODE = 136.9348
ARG_OF_PERICENTER = 183.6411
MEAN_ANOMALY   = 176.4587

EPHEMERIS_TYPE = 0
CLASSIFICATION_TYPE = U
NORAD_CAT_ID   = 29507
ELEMENT_SET_NO = 999
REV_AT_EPOCH   = 6359
BSTAR          = .25191E-3
MEAN_MOTION_DOT = .4998E-4
MEAN_MOTION_DDOT = 0

CCSDS_OMM_VERS = 2.0
CREATION_DATE  = 
ORIGINATOR     = 

OBJECT_NAME    = CZ-2C R/B
OBJECT_ID      = 2007-010B
CENTER_NAME    = EARTH
REF_FRAME      = TEME
TIME_SYSTEM    = UTC
MEAN_ELEMENT_THEORY = SGP/SGP4

EPOCH          = 2026-04-02T04:27:35.477856
MEAN_MOTION    = 14.20255136
ECCENTRICITY   = .0058229
INCLINATION    = 98.4003
RA_OF_ASC_NODE = 204.2898
ARG_OF_PERICENTER = 225.0383
MEAN_ANOMALY   = 134.6066

EPHEMERIS_TYPE = 0
CLASSIFICATION_TYPE = U
NORAD_CAT_ID   = 31114
ELEMENT_SET_NO = 999
REV_AT_EPOCH   = 98305
BSTAR          = .11421E-3
MEAN_MOTION_DOT = .207E-5
MEAN_MOTION_DDOT = 0

CCSDS_OMM_VERS = 2.0
CREATION_DATE  = 
ORIGINATOR     = 

OBJECT_NAME    = COSMO-SKYMED 1
OBJECT_ID      = 2007-023A
CENTER_NAME    = EARTH
REF_FRAME      = TEME
TIME_SYSTEM    = UTC
MEAN_ELEMENT_THEORY = SGP/SGP4

EPOCH          = 2026-04-02T04:46:02.114976
MEAN_MOTION    = 14.96708335
ECCENTRICITY   = .0001359
INCLINATION    = 97.8867
RA_OF_ASC_NODE = 283.4229
ARG_OF_PERICENTER = 102.4306
MEAN_ANOMALY   = 257.7067

EPHEMERIS_TYPE = 0
CLASSIFICATION_TYPE = U
NORAD_CAT_ID   = 31598
ELEMENT_SET_NO = 999
REV_AT_EPOCH   = 1842
BSTAR          = .35226E-3
MEAN_MOTION_DOT = .3964E-4
MEAN_MOTION_DDOT = 0

CCSDS_OMM_VERS = 2.0
CREATION_DATE  = 
ORIGINATOR     = 

OBJECT_NAME    = COSMOS 2428
OBJECT_ID      = 2007-029A
CENTER_NAME    = EARTH
REF_FRAME      = TEME
TIME_SYSTEM    = UTC
MEAN_ELEMENT_THEORY = SGP/SGP4

EPOCH          = 2026-04-01T11:20:06.066816
MEAN_MOTION    = 14.12948503
ECCENTRICITY   = .00097192
INCLINATION    = 70.9427
RA_OF_ASC_NODE = 155.5275
ARG_OF_PERICENTER = 253.4949
MEAN_ANOMALY   = 106.5104

EPHEMERIS_TYPE = 0
CLASSIFICATION_TYPE = U
NORAD_CAT_ID   = 31792
ELEMENT_SET_NO = 999
REV_AT_EPOCH   = 96731
BSTAR          = .7479706E-5
MEAN_MOTION_DOT = -.34E-6
MEAN_MOTION_DDOT = 0

CCSDS_OMM_VERS = 2.0
CREATION_DATE  = 
ORIGINATOR     = 

OBJECT_NAME    = SL-16 R/B
OBJECT_ID      = 2007-029B
CENTER_NAME    = EARTH
REF_FRAME      = TEME
TIME_SYSTEM    = UTC
MEAN_ELEMENT_THEORY = SGP/SGP4

EPOCH          = 2026-04-02T04:19:35.379840
MEAN_MOTION    = 14.14843812
ECCENTRICITY   = .0002861
INCLINATION    = 70.9742
RA_OF_ASC_NODE = 123.0073
ARG_OF_PERICENTER = 277.4438
MEAN_ANOMALY   = 157.1555

EPHEMERIS_TYPE = 0
CLASSIFICATION_TYPE = U
NORAD_CAT_ID   = 31793
ELEMENT_SET_NO = 999
REV_AT_EPOCH   = 96869
BSTAR          = -.12916E-4
MEAN_MOTION_DOT = -.73E-6
MEAN_MOTION_DDOT = 0

CCSDS_OMM_VERS = 2.0
CREATION_DATE  = 
ORIGINATOR     = 

OBJECT_NAME    = KORONAS-FOTON
OBJECT_ID      = 2009-003A
CENTER_NAME    = EARTH
REF_FRAME      = TEME
TIME_SYSTEM    = UTC
MEAN_ELEMENT_THEORY = SGP/SGP4

EPOCH          = 2026-04-02T03:59:04.572960
MEAN_MOTION    = 15.43978080
ECCENTRICITY   = .0011552
INCLINATION    = 82.4280
RA_OF_ASC_NODE = 251.4556
ARG_OF_PERICENTER = 73.3314
MEAN_ANOMALY   = 286.9201

EPHEMERIS_TYPE = 0
CLASSIFICATION_TYPE = U
NORAD_CAT_ID   = 33504
ELEMENT_SET_NO = 999
REV_AT_EPOCH   = 94936
BSTAR          = .39451E-3
MEAN_MOTION_DOT = .18058E-3
MEAN_MOTION_DDOT = 0

CCSDS_OMM_VERS = 2.0
CREATION_DATE  = 
ORIGINATOR     = 

OBJECT_NAME    = CZ-2C R/B
OBJECT_ID      = 2011-030B
CENTER_NAME    = EARTH
REF_FRAME      = TEME
TIME_SYSTEM    = UTC
MEAN_ELEMENT_THEORY = SGP/SGP4

EPOCH          = 2026-04-02T02:38:58.096032
MEAN_MOTION    = 14.81304460
ECCENTRICITY   = .0050964
INCLINATION    = 97.8584
RA_OF_ASC_NODE = 48.9122
ARG_OF_PERICENTER = 274.4004
MEAN_ANOMALY   = 97.0614

EPHEMERIS_TYPE = 0
CLASSIFICATION_TYPE = U
NORAD_CAT_ID   = 37731
ELEMENT_SET_NO = 999
REV_AT_EPOCH   = 79356
BSTAR          = .22014E-3
MEAN_MOTION_DOT = .1701E-4
MEAN_MOTION_DDOT = 0

CCSDS_OMM_VERS = 2.0
CREATION_DATE  = 
ORIGINATOR     = 

OBJECT_NAME    = H-2A R/B
OBJECT_ID      = 2012-025E
CENTER_NAME    = EARTH
REF_FRAME      = TEME
TIME_SYSTEM    = UTC
MEAN_ELEMENT_THEORY = SGP/SGP4

EPOCH          = 2026-04-02T03:36:22.171104
MEAN_MOTION    = 14.95332721
ECCENTRICITY   = .0043025
INCLINATION    = 98.4772
RA_OF_ASC_NODE = 61.0835
ARG_OF_PERICENTER = 235.1608
MEAN_ANOMALY   = 124.5560

EPHEMERIS_TYPE = 0
CLASSIFICATION_TYPE = U
NORAD_CAT_ID   = 38341
ELEMENT_SET_NO = 999
REV_AT_EPOCH   = 75172
BSTAR          = .22811E-3
MEAN_MOTION_DOT = .2491E-4
MEAN_MOTION_DDOT = 0

CCSDS_OMM_VERS = 2.0
CREATION_DATE  = 
ORIGINATOR     = 

OBJECT_NAME    = SHIJIAN-16 (SJ-16)
OBJECT_ID      = 2013-057A
CENTER_NAME    = EARTH
REF_FRAME      = TEME
TIME_SYSTEM    = UTC
MEAN_ELEMENT_THEORY = SGP/SGP4

EPOCH          = 2026-04-02T05:25:23.256768
MEAN_MOTION    = 14.92434615
ECCENTRICITY   = .0015339
INCLINATION    = 74.9718
RA_OF_ASC_NODE = 140.5329
ARG_OF_PERICENTER = 51.4880
MEAN_ANOMALY   = 308.7681

EPHEMERIS_TYPE = 0
CLASSIFICATION_TYPE = U
NORAD_CAT_ID   = 39358
ELEMENT_SET_NO = 999
REV_AT_EPOCH   = 67501
BSTAR          = .16332E-3
MEAN_MOTION_DOT = .1648E-4
MEAN_MOTION_DDOT = 0

CCSDS_OMM_VERS = 2.0
CREATION_DATE  = 
ORIGINATOR     = 

OBJECT_NAME    = SL-4 R/B
OBJECT_ID      = 2014-021B
CENTER_NAME    = EARTH
REF_FRAME      = TEME
TIME_SYSTEM    = UTC
MEAN_ELEMENT_THEORY = SGP/SGP4

EPOCH          = 2026-04-02T04:35:10.912128
MEAN_MOTION    = 15.40039806
ECCENTRICITY   = .0094789
INCLINATION    = 51.6058
RA_OF_ASC_NODE = 222.5563
ARG_OF_PERICENTER = 188.6669
MEAN_ANOMALY   = 171.2682

EPHEMERIS_TYPE = 0
CLASSIFICATION_TYPE = U
NORAD_CAT_ID   = 39679
ELEMENT_SET_NO = 999
REV_AT_EPOCH   = 65989
BSTAR          = .49968E-3
MEAN_MOTION_DOT = .23412E-3
MEAN_MOTION_DDOT = 0

