H-2A R/B                
1 28932U 06002B   26092.16228490  .00016163  00000+0  79314-3 0  9996
2 28932  98.2454 241.2201 0052453 160.9912 199.3292 15.16964387 97996
RESURS-DK 1             
1 29228U 06021A   26092.20663458  .00003136  00000+0  18382-3 0  9992
2 29228  69.9335 176.1893 0001737  40.3773 319.7522 15.12890515 91081
CZ-4B R/B               
1 29507U 06046C   26092.09122042  .00004998  00000+0  25191-3 0  9998
2 29507  97.5541 136.9348 0033109 183.6411 176.4587 15.17145047 63596
CZ-2C R/B               
1 31114U 07010B   26092.18582729  .00000207  00000+0  11421-3 0  9999
2 31114  98.4003 204.2898 0058229 225.0383 134.6066 14.20255136983058
COSMO-SKYMED 1          
1 31598U 07023A   26092.19863559  .00003964  00000+0  35226-3 0  9995
2 31598  97.8867 283.4229 0001359 102.4306 257.7067 14.96708335 18422
COSMOS 2428             
1 31792U 07029A   26091.47229244 -.00000034  00000+0  74797-5 0  9998
2 31792  70.9427 155.5275 0009719 253.4949 106.5104 14.12948503967315
SL-16 R/B               
1 31793U 07029B   26092.18027060 -.00000073  00000+0 -12916-4 0  9998
2 31793  70.9742 123.0073 0002861 277.4438 157.1555 14.14843812968695
KORONAS-FOTON           
1 33504U 09003A   26092.16602515  .00018058  00000+0  39451-3 0  9998
2 33504  82.4280 251.4556 0011552  73.3314 286.9201 15.43978080949368
CZ-2C R/B               
1 37731U 11030B   26092.11039463  .00001701  00000+0  22014-3 0  9992
2 37731  97.8584  48.9122 0050964 274.4004  97.0614 14.81304460793563
H-2A R/B                
1 38341U 12025E   26092.15025661  .00002491  00000+0  22811-3 0  9996
2 38341  98.4772  61.0835 0043025 235.1608 124.5560 14.95332721751722
SHIJIAN-16 (SJ-16)      
1 39358U 13057A   26092.22596362  .00001648  00000+0  16332-3 0  9994
2 39358  74.9718 140.5329 0015339  51.4880 308.7681 14.92434615675018
SL-4 R/B                
1 39679U 14021B   26092.19109852  .00023412  00000+0  49968-3 0  9996
2 39679  51.6058 222.5563 0094789 188.6669 171.2682 15.40039806659897
